     2.10           G: GLONASS NAV DATA                     RINEX VERSION / TYPE
teqc  2015Jun23                         20220703 01:25:44UTCPGM / RUN BY / DATE
Linux 2.4.21-27.ELsmp|Opteron|gcc -static|Linux x86_64|=+   COMMENT
  2022     6    22   -8.847564458847D-09                    CORR TO SYSTEM TIME
                                                            END OF HEADER
12 22  6 23 20 45  0.0 1.899059861898D-05 9.094947017729D-13 7.380000000000D+04
    4.620664062500D+03-2.800585746765D+00-0.000000000000D+00 0.000000000000D+00
    1.252828320312D+04-9.950151443481D-01-9.313225746155D-10-1.000000000000D+00
    2.175998974609D+04 1.170273780823D+00-1.862645149231D-09 0.000000000000D+00
23 22  6 23 20 45  0.0-4.530884325504D-05-9.094947017729D-13 7.380000000000D+04
   -5.748416992188D+03-1.909676551819D+00 0.000000000000D+00 0.000000000000D+00
    1.594469189453D+04 1.789332389832D+00-0.000000000000D+00 3.000000000000D+00
   -1.907685742188D+04 2.072577476501D+00 1.862645149231D-09 0.000000000000D+00
23 22  6 23 21 15  0.0-4.531163722277D-05-9.094947017729D-13 7.560000000000D+04
   -8.566008300781D+03-1.212954521179D+00-0.000000000000D+00 0.000000000000D+00
    1.904858935547D+04 1.611389160156D+00-0.000000000000D+00 3.000000000000D+00
   -1.465775585938D+04 2.805739402771D+00 1.862645149231D-09 0.000000000000D+00
 1 22  6 23 21 15  0.0 1.037679612637D-05 0.000000000000D+00 7.560000000000D+04
    2.285999023438D+03-4.188022613525D-01 9.313225746155D-10 0.000000000000D+00
    2.261428613281D+04-1.536176681519D+00-9.313225746155D-10 1.000000000000D+00
   -1.159034912109D+04-3.077029228210D+00 0.000000000000D+00 0.000000000000D+00
 2 22  6 23 21 15  0.0 5.221171304584D-04 9.094947017729D-13 7.560000000000D+04
    1.098607714844D+04 4.901742935181D-01 0.000000000000D+00 0.000000000000D+00
    2.161165136719D+04 9.692888259888D-01-9.313225746155D-10-4.000000000000D+00
    7.880096191406D+03-3.366510391235D+00-1.862645149231D-09 0.000000000000D+00
 8 22  6 23 21 15  0.0-6.583891808987D-05-9.094947017729D-13 7.560000000000D+04
   -7.320582031250D+03-9.085588455200D-01 0.000000000000D+00 0.000000000000D+00
    1.076044335938D+04-2.871880531311D+00-0.000000000000D+00 6.000000000000D+00
   -2.187387011719D+04-1.107785224915D+00 1.862645149231D-09 0.000000000000D+00
12 22  6 23 21 15  0.0 1.899152994156D-05 9.094947017729D-13 7.560000000000D+04
   -7.147529296875D+02-3.080895423889D+00-1.862645149231D-09 0.000000000000D+00
    1.106493310547D+04-6.103963851929D-01-9.313225746155D-10-1.000000000000D+00
    2.300061181641D+04 1.993398666382D-01-1.862645149231D-09 0.000000000000D+00
24 22  6 23 21 15  0.0 1.001656055450D-04 1.818989403546D-12 7.656000000000D+04
    4.323088378906D+03-2.057698249817D+00 1.862645149231D-09 0.000000000000D+00
    1.098169335938D+04 2.316934585571D+00-0.000000000000D+00 2.000000000000D+00
   -2.260651367188D+04 7.302389144897D-01 9.313225746155D-10 0.000000000000D+00
24 22  6 23 21 45  0.0 1.001693308353D-04 1.818989403546D-12 7.740000000000D+04
    1.078878417969D+03-1.527318954468D+00 9.313225746155D-10 0.000000000000D+00
    1.522349707031D+04 2.349073410034D+00-0.000000000000D+00 2.000000000000D+00
   -2.043474462891D+04 1.667117118835D+00 9.313225746155D-10 0.000000000000D+00
 2 22  6 23 21 45  0.0 5.221189931035D-04 0.000000000000D+00 7.740000000000D+04
    1.168769482422D+04 2.478704452515D-01 0.000000000000D+00 0.000000000000D+00
    2.258422753906D+04 1.162452697754D-01-9.313225746155D-10-4.000000000000D+00
    1.593476074219D+03-3.573191642761D+00-9.313225746155D-10 0.000000000000D+00
 1 22  6 23 21 45  0.0 1.037772744894D-05 0.000000000000D+00 7.740000000000D+04
    1.063283691406D+03-9.561557769775D-01 0.000000000000D+00 0.000000000000D+00
    1.933461474609D+04-2.065922737122D+00-9.313225746155D-10 1.000000000000D+00
   -1.660965527344D+04-2.463763237000D+00 9.313225746155D-10 0.000000000000D+00
23 22  6 23 21 45  0.0-4.531349986792D-05-9.094947017729D-13 7.740000000000D+04
   -1.012142724609D+04-5.266437530518D-01-1.862645149231D-09 0.000000000000D+00
    2.157642529297D+04 1.152927398682D+00-0.000000000000D+00 3.000000000000D+00
   -9.106407226562D+03 3.322442054749D+00 9.313225746155D-10 0.000000000000D+00
12 22  6 23 21 45  0.0 1.899246126413D-05 9.094947017729D-13 7.818000000000D+04
   -6.291433105469D+03-3.064174652100D+00-2.793967723846D-09 0.000000000000D+00
    1.037415478516D+04-1.539916992188D-01-0.000000000000D+00-1.000000000000D+00
    2.246853955078D+04-7.866830825806D-01-9.313225746155D-10 0.000000000000D+00
24 22  6 23 22 15  0.0 1.001721248031D-04 1.818989403546D-12 7.920000000000D+04
   -1.137481445312D+03-9.341878890991D-01-0.000000000000D+00 0.000000000000D+00
    1.926306884766D+04 2.090632438660D+00-0.000000000000D+00 2.000000000000D+00
   -1.668260253906D+04 2.474817276001D+00 9.313225746155D-10 0.000000000000D+00
 2 22  6 23 22 15  0.0 5.221199244261D-04 0.000000000000D+00 7.920000000000D+04
    1.173971240234D+04-2.241497039795D-01 0.000000000000D+00 0.000000000000D+00
    2.208197509766D+04-6.509523391724D-01-9.313225746155D-10-4.000000000000D+00
   -4.816669433594D+03-3.502731323242D+00-0.000000000000D+00 0.000000000000D+00
 1 22  6 23 22 15  0.0 1.037865877151D-05 0.000000000000D+00 7.920000000000D+04
   -1.183957031250D+03-1.539423942566D+00 0.000000000000D+00 0.000000000000D+00
    1.534162158203D+04-2.322727203369D+00-0.000000000000D+00 1.000000000000D+00
   -2.034526562500D+04-1.659941673279D+00 1.862645149231D-09 0.000000000000D+00
23 22  6 23 22 15  0.0-4.531629383564D-05-9.094947017729D-13 7.920000000000D+04
   -1.053445019531D+04 3.962039947510D-02-2.793967723846D-09 0.000000000000D+00
    2.305691357422D+04 4.588069915771D-01-0.000000000000D+00 3.000000000000D+00
   -2.851314941406D+03 3.582560539246D+00 9.313225746155D-10 0.000000000000D+00
12 22  6 23 22 15  0.0 1.899339258671D-05 9.094947017729D-13 7.923000000000D+04
   -1.156433398438D+04-2.746577262878D+00-3.725290298462D-09 0.000000000000D+00
    1.048951513672D+04 2.675733566284D-01 0.000000000000D+00-1.000000000000D+00
    2.020501904297D+04-1.712086677551D+00-9.313225746155D-10 0.000000000000D+00
 3 22  6 23 22 15  0.0 5.897879600525D-05 0.000000000000D+00 7.956000000000D+04
    1.679899609375D+04 1.049303054810D+00 0.000000000000D+00 0.000000000000D+00
    1.469061083984D+04 1.325913429260D+00-9.313225746155D-10 5.000000000000D+00
    1.235320312500D+04-3.019946098328D+00-1.862645149231D-09 0.000000000000D+00
24 22  6 23 22 45  0.0 1.001758500934D-04 1.818989403546D-12 8.100000000000D+04
   -2.313347167969D+03-3.892154693604D-01-9.313225746155D-10 0.000000000000D+00
    2.258282177734D+04 1.555448532104D+00-0.000000000000D+00 2.000000000000D+00
   -1.164062695312D+04 3.090977668762D+00 9.313225746155D-10 0.000000000000D+00
 2 22  6 23 22 45  0.0 5.221208557487D-04 0.000000000000D+00 8.100000000000D+04
    1.078109960938D+04-8.611698150635D-01 0.000000000000D+00 0.000000000000D+00
    2.035252734375D+04-1.233038902283D+00-9.313225746155D-10-4.000000000000D+00
   -1.085252636719D+04-3.159947395325D+00 0.000000000000D+00 0.000000000000D+00
 1 22  6 23 22 45  0.0 1.037959009409D-05 0.000000000000D+00 8.100000000000D+04
   -4.440536621094D+03-2.059396743774D+00 0.000000000000D+00 0.000000000000D+00
    1.114547851562D+04-2.293272018433D+00-0.000000000000D+00 1.000000000000D+00
   -2.250813037109D+04-7.275991439819D-01 1.862645149231D-09 0.000000000000D+00
 3 22  6 23 22 45  0.0 5.897972732782D-05 0.000000000000D+00 8.100000000000D+04
    1.841317529297D+04 7.014389038086D-01 0.000000000000D+00 0.000000000000D+00
    1.638565576172D+04 5.630025863647D-01-9.313225746155D-10 5.000000000000D+00
    6.509683593750D+03-3.430767059326D+00-9.313225746155D-10 0.000000000000D+00
12 22  6 23 22 45  0.0 1.899432390928D-05 9.094947017729D-13 8.100000000000D+04
   -1.602260351562D+04-2.169445991516D+00-3.725290298462D-09 0.000000000000D+00
    1.125628564453D+04 5.547370910645D-01 9.313225746155D-10-1.000000000000D+00
    1.638425830078D+04-2.505775451660D+00 0.000000000000D+00 0.000000000000D+00
23 22  6 23 22 45  0.0-4.531815648079D-05-9.094947017729D-13 8.100000000000D+04
   -1.010279003906D+04 4.005279541016D-01-2.793967723846D-09 0.000000000000D+00
    2.313717724609D+04-3.859920501709D-01 0.000000000000D+00 3.000000000000D+00
    3.624208496094D+03 3.565731048584D+00 9.313225746155D-10 0.000000000000D+00
17 22  6 23 22 45  0.0 5.375212058425D-04 2.728484105319D-12 8.256000000000D+04
    7.428000976562D+03-9.502706527710D-01 9.313225746155D-10 0.000000000000D+00
    9.660582519531D+03 2.921835899353D+00-9.313225746155D-10 4.000000000000D+00
   -2.241467529297D+04 9.406509399414D-01 9.313225746155D-10 0.000000000000D+00
24 22  6 23 23 15  0.0 1.001795753837D-04 1.818989403546D-12 8.280000000000D+04
   -2.627209472656D+03 9.156227111816D-03-1.862645149231D-09 0.000000000000D+00
    2.473085107422D+04 8.017463684082D-01 0.000000000000D+00 2.000000000000D+00
   -5.698885742188D+03 3.468090057373D+00 9.313225746155D-10 0.000000000000D+00
23 22  6 23 23 15  0.0-4.532095044851D-05-9.094947017729D-13 8.280000000000D+04
   -9.244880371094D+03 5.091142654419D-01-3.725290298462D-09 0.000000000000D+00
    2.164377929688D+04-1.269763946533D+00 9.313225746155D-10 3.000000000000D+00
    9.819351562500D+03 3.273015022278D+00 0.000000000000D+00 0.000000000000D+00
 1 22  6 23 23 15  0.0 1.038052141666D-05 0.000000000000D+00 8.280000000000D+04
   -8.497556640625D+03-2.413127899170D+00 0.000000000000D+00 0.000000000000D+00
    7.239195312500D+03-2.009572982788D+00 0.000000000000D+00 1.000000000000D+00
   -2.293062304688D+04 2.612581253052D-01 2.793967723846D-09 0.000000000000D+00
 2 22  6 23 23 15  0.0 5.221217870712D-04 0.000000000000D+00 8.280000000000D+04
    8.598282226562D+03-1.566337585449D+00 0.000000000000D+00 0.000000000000D+00
    1.779507666016D+04-1.563189506531D+00-9.313225746155D-10-4.000000000000D+00
   -1.604450292969D+04-2.571194648743D+00 9.313225746155D-10 0.000000000000D+00
